SAOCOM 1A               
1 43641U 18076A   26068.96299391  .00001305  00000+0  17043-3 0  9996
2 43641  97.8895 257.1316 0001339  83.6952 276.4413 14.82173643401405
H-2A R/B                
1 43682U 18084L   26069.12235723  .00021874  00000+0  51988-3 0  9997
2 43682  98.8731 286.6024 0025378  23.8947 336.3467 15.41368885405849
SAOCOM 1B               
1 46265U 20059A   26065.95626301  .00001349  00000+0  17595-3 0  9996
2 46265  97.8885 253.2654 0001504  81.2285 278.9098 14.82173062298346
CSS (TIANHE)            
1 48274U 21035A   26069.03553595  .00026947  00000+0  31825-3 0  9993
2 48274  41.4664 206.0569 0006997 274.9746  85.0294 15.60677472277661
COSMOS 2550             
1 48865U 21056A   26067.47400841 -.00000192  00000+0 -13338-7 0  9992
2 48865  67.1451  44.6088 0008369 269.6014  90.4182 15.33829151263273
CZ-2C R/B               
1 52794U 22058K   26069.09097593  .00039191  00000+0  57033-3 0  9992
2 52794  50.1894 316.2255 0042149 202.5748 157.3369 15.54266256210197
CZ-2C R/B               
1 54039U 22132E   26069.01235140  .00045660  00000+0  51999-3 0  9996
2 54039  97.2968  72.3390 0020661  90.3292 270.0333 15.61874020190426
GSLV R/B                
1 54149U 22138AN  26068.72082442  .00003719  00000+0  32105-3 0  9993
2 54149  87.3876 166.3520 0023020 146.6269 213.6419 14.96774296183933
XRISM                   
1 57800U 23137A   26068.97080784  .00006442  00000+0  36527-3 0  9992
2 57800  31.0015 281.8459 0008010  41.4505 318.6740 15.11505971137833
ACS3                    
1 59588U 24077B   26068.85800629  .00024147  00000+0  19402-1 0  9999
2 59588  97.2069   9.9320 0059818  76.3572 284.4244 13.89619668 94226
SZ-21 MODULE            
1 66515U 25246C   26067.73638915  .00047754  00000+0  41113-3 0  9994
2 66515  41.4736 209.2286 0001365 296.9264  63.1439 15.68463397 17929
